FREGAT DEB              
1 49271U 11037PF  25334.10220946  .00006404  00000+0  14226-1 0  9995
2 49271  51.6202 236.7991 0869985 196.4494 160.6386 12.34314267200375
HRC MONOBLOCK CAMERA    
1 66052U 98067XR  25334.36473947  .00036812  00000+0  58423-3 0  9993
2 66052  51.6305 203.1547 0004569 134.7899 225.3463 15.52986760  6918
SZ-21 MODULE            
1 66515U 25246C   25334.77516894  .00028896  00000+0  32879-3 0  9990
2 66515  41.4762  88.9853 0005518 188.5399 171.5347 15.61627193  2575
CZ-2F R/B               
1 66646U 25272B   25330.47076975  .00449059  75676-5  29319-3 0  9998
2 66646  41.4431 114.9009 0121079 133.7676 227.3272 16.01945612   217
